{
  "norad_id": 38755,
  "name": "SPOT 6",
  "history": [
    {
      "epoch": "2026-03-28T22:24:14.878656Z",
      "apogee_km": 698.9018502596118,
      "perigee_km": 696.7811794987038,
      "latitude_deg": 4.4470228813961796e-05,
      "longitude_deg": -6.250241773818755,
      "height_km": 700.7572819738965,
      "semi_major_axis_km": 7075.978514879158,
      "eccentricity": 0.00014985,
      "inclination_deg": 98.2185,
      "raan_deg": 156.1586,
      "arg_perigee_deg": 86.5171,
      "mean_anomaly_deg": 273.62,
      "mean_motion_rev_day": 14.58555649
    },
    {
      "epoch": "2026-03-29T04:59:23.561376Z",
      "apogee_km": 698.8845844709185,
      "perigee_km": 696.797170996987,
      "latitude_deg": 3.0584019195361924e-05,
      "longitude_deg": -105.0354846440017,
      "height_km": 700.7423961205997,
      "semi_major_axis_km": 7075.9778777339525,
      "eccentricity": 0.0001475,
      "inclination_deg": 98.2185,
      "raan_deg": 156.43,
      "arg_perigee_deg": 85.6752,
      "mean_anomaly_deg": 274.4616,
      "mean_motion_rev_day": 14.58555846
    },
    {
      "epoch": "2026-03-30T04:02:23.928000Z",
      "apogee_km": 698.8566526023988,
      "perigee_km": 696.8145269129936,
      "latitude_deg": 1.2945043784464727e-05,
      "longitude_deg": -90.78384315842018,
      "height_km": 700.7264286087183,
      "semi_major_axis_km": 7075.9725897576955,
      "eccentricity": 0.0001443,
      "inclination_deg": 98.2184,
      "raan_deg": 157.3798,
      "arg_perigee_deg": 84.9743,
      "mean_anomaly_deg": 275.1621,
      "mean_motion_rev_day": 14.58557481
    },
    {
      "epoch": "2026-03-30T07:19:58.263744Z",
      "apogee_km": 698.8622143207613,
      "perigee_km": 696.8080596094005,
      "latitude_deg": -8.550311576342445e-05,
      "longitude_deg": -140.1763278657206,
      "height_km": 700.7267172096315,
      "semi_major_axis_km": 7075.972136965081,
      "eccentricity": 0.00014515,
      "inclination_deg": 98.2184,
      "raan_deg": 157.5156,
      "arg_perigee_deg": 85.0453,
      "mean_anomaly_deg": 275.0911,
      "mean_motion_rev_day": 14.58557621
    },
    {
      "epoch": "2026-03-30T13:55:06.888576Z",
      "apogee_km": 698.870331108269,
      "perigee_km": 696.7892892693917,
      "latitude_deg": 2.808526845477062e-05,
      "longitude_deg": 121.038653049672,
      "height_km": 700.7006023833782,
      "semi_major_axis_km": 7075.96681018883,
      "eccentricity": 0.00014705,
      "inclination_deg": 98.2184,
      "raan_deg": 157.787,
      "arg_perigee_deg": 83.9621,
      "mean_anomaly_deg": 276.1746,
      "mean_motion_rev_day": 14.58559268
    }
  ]
}